IRIDIUM 36              
1 24967U 97056C   24279.70531226  .00002522  00000+0  84345-3 0  9992
2 24967  86.3900 279.8717 0002449  92.5343 267.6135 14.37085108415661
IRIDIUM 39              
1 25042U 97069D   24279.83948525  .00003683  00000+0  97582-3 0  9995
2 25042  86.3907 320.1982 0020339  78.0655 282.2827 14.48420071412134
IRIDIUM 38              
1 25043U 97069E   24279.88595941  .00002310  00000+0  76429-3 0  9994
2 25043  86.3995 340.1657 0002012 147.0328 213.0996 14.37581696409410
IRIDIUM 42              
1 25077U 97077A   24279.72235741  .00002157  00000+0  73842-3 0  9997
2 25077  86.4009 346.0863 0001696 109.6984 250.4395 14.35857016404678
IRIDIUM 44              
1 25078U 97077B   24279.87434721  .00002243  00000+0  71073-3 0  9993
2 25078  86.3969 328.6335 0003667 115.9253 244.2324 14.39700130407104
IRIDIUM 45              
1 25104U 97082A   24279.73251969  .00033788  00000+0  16635-2 0  9995
2 25104  86.3687 170.1571 0144714 194.9805 164.7127 15.09007350413490
IRIDIUM 24              
1 25105U 97082B   24279.82467968  .00003190  00000+0  97568-3 0  9993
2 25105  86.3984 188.0641 0010673 187.0648 173.0404 14.41530487406569
IRIDIUM 51              
1 25262U 98018A   24279.79228946  .00053038  00000+0  20535-2 0  9999
2 25262  86.3991 179.5917 0131363 131.8411 229.4136 15.18220474408159
